NORAD_CAT_ID,OBJECT_NAME,OBJECT_TYPE,EPOCH,MEAN_MOTION,ECCENTRICITY,INCLINATION,RA_OF_ASC_NODE,ARG_OF_PERICENTER,MEAN_ANOMALY,BSTAR,MEAN_MOTION_DOT,MEAN_MOTION_DDOT,TLE_LINE0,TLE_LINE1,TLE_LINE2,SEMIMAJOR_AXIS,PERIOD,APOGEE,PERIGEE,DECAYED
54177.0,STARLINK-5186,PAYLOAD,2023-08-01 17:09:10,15.08838524,9.42e-05,53.2181,313.1466,98.2268,261.8831,6.7994e-05,7.95e-06,0.0,0 STARLINK-5186,1 54177U 22141W   23213.71470891  .00000795  00000-0  67994-4 0  9992,2 54177  53.2181 313.1466 0000942  98.2268 261.8831 15.08838524 42290,6917.885,95.438,540.402,539.098,0.0
54177.0,STARLINK-5186,PAYLOAD,2023-08-02 13:49:10,15.08853409,9.77e-05,53.218,309.2806,95.9722,264.1382,0.00012828,1.755e-05,0.0,0 STARLINK-5186,1 54177U 22141W   23214.57581894  .00001755  00000-0  12828-3 0  9995,2 54177  53.2180 309.2806 0000977  95.9722 264.1382 15.08853409 42421,6917.839,95.437,540.38,539.029,0.0
54177.0,STARLINK-5186,PAYLOAD,2023-08-03 10:29:12,15.08839422,0.0001134,53.2183,305.4157,86.4293,273.6829,9.4684e-05,1.219e-05,0.0,0 STARLINK-5186,1 54177U 22141W   23215.43694844  .00001219  00000-0  94684-4 0  9997,2 54177  53.2183 305.4157 0001134  86.4293 273.6829 15.08839422 42559,6917.882,95.438,540.532,538.963,0.0
54177.0,STARLINK-5186,PAYLOAD,2023-08-04 10:19:59,15.08837564,0.0001123,53.2178,300.9557,87.0299,273.0821,-7.4368e-05,-1.471e-05,0.0,0 STARLINK-5186,1 54177U 22141W   23216.43055546 -.00001471  00000-0 -74368-4 0  9997,2 54177  53.2178 300.9557 0001123  87.0299 273.0821 15.08837564 42706,6917.888,95.438,540.53,538.976,0.0
54177.0,STARLINK-5186,PAYLOAD,2023-08-05 10:10:46,15.08833958,0.0001168,53.2172,296.4966,94.3087,265.8038,0.00034003,5.127e-05,0.0,0 STARLINK-5186,1 54177U 22141W   23217.42414366  .00005127  00000-0  34003-3 0  9997,2 54177  53.2172 296.4966 0001168  94.3087 265.8038 15.08833958 42856,6917.899,95.438,540.572,538.956,0.0
54177.0,STARLINK-5186,PAYLOAD,2023-08-05 13:21:31,15.08855639,0.0001102,53.2169,295.9008,77.4812,282.6303,0.00019953,2.89e-05,0.0,0 STARLINK-5186,1 54177U 22141W   23217.55661709  .00002890  00000-0  19953-3 0  9997,2 54177  53.2169 295.9008 0001102  77.4812 282.6303 15.08855639 42873,6917.833,95.437,540.46,538.935,0.0
54177.0,STARLINK-5186,PAYLOAD,2023-08-05 22:53:51,15.08844258,9.99e-05,53.218,294.1118,111.2845,248.8254,7.209e-05,8.6e-06,0.0,0 STARLINK-5186,1 54177U 22141W   23217.95406312  .00000860  00000-0  72090-4 0  9995,2 54177  53.2180 294.1118 0000999 111.2845 248.8254 15.08844258 42936,6917.867,95.437,540.423,539.041,0.0
54177.0,STARLINK-5186,PAYLOAD,2023-08-06 11:36:57,15.08827681,0.0001178,53.218,291.7384,84.7303,275.3823,-2.0737e-05,-6.18e-06,0.0,0 STARLINK-5186,1 54177U 22141W   23218.48400230 -.00000618  00000-0 -20737-4 0  9991,2 54177  53.2180 291.7384 0001178  84.7303 275.3823 15.08827681 43015,6917.918,95.438,540.598,538.968,0.0
54177.0,STARLINK-5186,PAYLOAD,2023-08-07 11:27:44,15.08845161,0.0001079,53.2168,287.2768,97.0328,263.0787,-2.1903e-05,-6.36e-06,0.0,0 STARLINK-5186,1 54177U 22141W   23219.47759371 -.00000636  00000-0 -21903-4 0  9990,2 54177  53.2168 287.2768 0001079  97.0328 263.0787 15.08845161 43163,6917.865,95.437,540.476,538.983,0.0
54177.0,STARLINK-5186,PAYLOAD,2023-08-08 11:18:31,15.08839224,0.0001098,53.2166,282.8171,95.4715,264.6402,0.00023808,3.503e-05,0.0,0 STARLINK-5186,1 54177U 22141W   23220.47119629  .00003503  00000-0  23808-3 0  9997,2 54177  53.2166 282.8171 0001098  95.4715 264.6402 15.08839224 43314,6917.883,95.438,540.507,538.988,0.0
54177.0,STARLINK-5186,PAYLOAD,2023-08-09 03:12:23,15.08834553,0.0001013,53.2163,279.8443,92.7177,267.3931,0.00013098,1.797e-05,0.0,0 STARLINK-5186,1 54177U 22141W   23221.13360367  .00001797  00000-0  13098-3 0  9991,2 54177  53.2163 279.8443 0001013  92.7177 267.3931 15.08834553 43416,6917.897,95.438,540.463,539.061,0.0
54177.0,STARLINK-5186,PAYLOAD,2023-08-10 03:03:09,15.08854445,0.0001156,53.2184,275.384,96.1528,263.9596,0.00019037,2.744e-05,0.0,0 STARLINK-5186,1 54177U 22141W   23222.12718797  .00002744  00000-0  19037-3 0  9997,2 54177  53.2184 275.3840 0001156  96.1528 263.9596 15.08854445 43564,6917.836,95.437,540.501,538.902,0.0
54177.0,STARLINK-5186,PAYLOAD,2023-08-11 02:53:57,15.08826195,0.0001227,53.2176,270.9232,94.1823,265.931,4.4069e-06,-2.18e-06,0.0,0 STARLINK-5186,1 54177U 22141W   23223.12080642 -.00000218  00000-0  44069-5 0  9999,2 54177  53.2176 270.9232 0001227  94.1823 265.9310 15.08826195 43710,6917.923,95.438,540.636,538.939,0.0
54177.0,STARLINK-5186,PAYLOAD,2023-08-11 10:50:52,15.08832125,0.0001138,53.2161,269.4355,92.8675,267.2447,-0.00010206,-1.911e-05,0.0,0 STARLINK-5186,1 54177U 22141W   23223.45199846 -.00001911  00000-0 -10206-3 0  9998,2 54177  53.2161 269.4355 0001138  92.8675 267.2447 15.08832125 43765,6917.904,95.438,540.557,538.982,0.0
54177.0,STARLINK-5186,PAYLOAD,2023-08-12 20:13:59,15.08838649,0.0001198,53.2148,263.1905,99.3254,260.7874,0.00049751,7.639e-05,0.0,0 STARLINK-5186,1 54177U 22141W   23224.84304508  .00007639  00000-0  49751-3 0  9993,2 54177  53.2148 263.1905 0001198  99.3254 260.7874 15.08838649 43975,6917.885,95.438,540.578,538.921,0.0
54177.0,STARLINK-5186,PAYLOAD,2023-08-14 08:47:51,15.08844042,0.0001124,53.2146,256.3499,96.5153,263.5967,0.00018144,2.601e-05,0.0,0 STARLINK-5186,1 54177U 22141W   23226.36656372  .00002601  00000-0  18144-3 0  9997,2 54177  53.2146 256.3499 0001124  96.5153 263.5967 15.08844042 44206,6917.868,95.437,540.511,538.955,0.0
54177.0,STARLINK-5186,PAYLOAD,2023-08-15 18:10:56,15.08841624,0.0001258,53.2153,250.1049,88.0229,272.0907,0.00013502,1.862e-05,0.0,0 STARLINK-5186,1 54177U 22141W   23227.75760334  .00001862  00000-0  13502-3 0  9996,2 54177  53.2153 250.1049 0001258  88.0229 272.0907 15.08841624 44410,6917.875,95.437,540.611,538.87,0.0
54177.0,STARLINK-5186,PAYLOAD,2023-08-16 08:29:25,15.08837061,0.0001338,53.2168,247.4292,97.4849,262.6295,7.7214e-05,9.41e-06,0.0,0 STARLINK-5186,1 54177U 22141W   23228.35376807  .00000941  00000-0  77214-4 0  9999,2 54177  53.2168 247.4292 0001338  97.4849 262.6295 15.08837061 44501,6917.889,95.438,540.68,538.829,0.0
54177.0,STARLINK-5186,PAYLOAD,2023-08-17 08:20:12,15.0884587,0.000138,53.2171,242.9687,95.6195,264.4955,0.00010981,1.46e-05,0.0,0 STARLINK-5186,1 54177U 22141W   23229.34736223  .00001460  00000-0  10981-3 0  9995,2 54177  53.2171 242.9687 0001380  95.6195 264.4955 15.08845870 44650,6917.862,95.437,540.682,538.773,0.0
54177.0,STARLINK-5186,PAYLOAD,2023-08-17 17:52:31,15.08840014,0.0001382,53.2171,241.1846,93.5746,266.5404,6.0494e-05,6.75e-06,0.0,0 STARLINK-5186,1 54177U 22141W   23229.74480713  .00000675  00000-0  60494-4 0  9991,2 54177  53.2171 241.1846 0001382  93.5746 266.5404 15.08840014 44713,6917.88,95.438,540.701,538.789,0.0
54177.0,STARLINK-5186,PAYLOAD,2023-08-19 01:40:14,15.0884117,0.0001419,53.2169,235.2369,90.4626,269.6529,4.5877e-05,4.42e-06,0.0,0 STARLINK-5186,1 54177U 22141W   23231.06960854  .00000442  00000-0  45877-4 0  9998,2 54177  53.2169 235.2369 0001419  90.4626 269.6529 15.08841170 44916,6917.877,95.437,540.723,538.76,0.0
54177.0,STARLINK-5186,PAYLOAD,2023-08-19 23:55:38,15.08835109,0.000132,53.2161,231.0736,92.4481,267.6662,6.3205e-05,7.18e-06,0.0,0 STARLINK-5186,1 54177U 22141W   23231.99697206  .00000718  00000-0  63205-4 0  9999,2 54177  53.2161 231.0736 0001320  92.4481 267.6662 15.08835109 45059,6917.895,95.438,540.674,538.847,0.0
54177.0,STARLINK-5186,PAYLOAD,2023-08-21 09:18:43,15.08846841,0.0001366,53.2158,224.8283,95.7762,264.3386,9.345e-05,1.2e-05,0.0,0 STARLINK-5186,1 54177U 22141W   23233.38800410  .00001200  00000-0  93450-4 0  9999,2 54177  53.2158 224.8283 0001366  95.7762 264.3386 15.08846841 45265,6917.859,95.437,540.669,538.779,0.0
54177.0,STARLINK-5186,PAYLOAD,2023-08-22 02:47:58,15.0884017,0.000144,53.2164,221.5565,93.8257,266.29,5.556e-05,5.96e-06,0.0,0 STARLINK-5186,1 54177U 22141W   23234.11664950  .00000596  00000-0  55560-4 0  9995,2 54177  53.2164 221.5565 0001440  93.8257 266.2900 15.08840170 45374,6917.88,95.438,540.741,538.749,0.0
54177.0,STARLINK-5186,PAYLOAD,2023-08-23 02:38:45,15.08836465,0.0001549,53.2167,217.0945,106.4186,253.6976,-6.4152e-06,-3.9e-06,0.0,0 STARLINK-5186,1 54177U 22141W   23235.11025382 -.00000390  00000-0 -64152-5 0  9998,2 54177  53.2167 217.0945 0001549 106.4186 253.6976 15.08836465 45523,6917.891,95.438,540.828,538.685,0.0
54177.0,STARLINK-5186,PAYLOAD,2023-08-24 21:34:11,15.08833635,0.00014,53.2172,209.0682,86.4085,273.7067,5.7761e-05,6.31e-06,0.0,0 STARLINK-5186,1 54177U 22141W   23236.89873876  .00000631  00000-0  57761-4 0  9996,2 54177  53.2172 209.0682 0001400  86.4085 273.7067 15.08833635 45798,6917.9,95.438,540.733,538.796,0.0
54177.0,STARLINK-5186,PAYLOAD,2023-08-25 02:20:20,15.08836408,0.0001382,53.2168,208.1765,86.5719,273.5431,7.4294e-05,8.95e-06,0.0,0 STARLINK-5186,1 54177U 22141W   23237.09745702  .00000895  00000-0  74294-4 0  9997,2 54177  53.2168 208.1765 0001382  86.5719 273.5431 15.08836408 45827,6917.891,95.438,540.712,538.8,0.0
54177.0,STARLINK-5186,PAYLOAD,2023-08-25 07:06:29,15.08840761,0.0001374,53.2169,207.2842,88.5935,271.5214,9.0631e-05,1.155e-05,0.0,0 STARLINK-5186,1 54177U 22141W   23237.29617400  .00001155  00000-0  90631-4 0  9995,2 54177  53.2169 207.2842 0001374  88.5935 271.5214 15.08840761 45854,6917.878,95.438,540.694,538.793,0.0
54177.0,STARLINK-5186,PAYLOAD,2023-08-26 08:32:39,15.08841876,0.0001471,53.2169,202.5266,85.411,274.705,3.3203e-05,2.41e-06,0.0,0 STARLINK-5186,1 54177U 22141W   23238.35601705  .00000241  00000-0  33203-4 0  9991,2 54177  53.2169 202.5266 0001471  85.4110 274.7050 15.08841876 46011,6917.875,95.437,540.757,538.722,0.0
54177.0,STARLINK-5186,PAYLOAD,2023-08-27 06:48:03,15.08844121,0.0001595,53.2168,198.363,84.2475,275.8699,7.2148e-05,8.61e-06,0.0,0 STARLINK-5186,1 54177U 22141W   23239.28337562  .00000861  00000-0  72148-4 0  9990,2 54177  53.2168 198.3630 0001595  84.2475 275.8699 15.08844121 46157,6917.868,95.437,540.836,538.629,0.0
